NORAD_CAT_ID,OBJECT_NAME,OBJECT_TYPE,EPOCH,MEAN_MOTION,ECCENTRICITY,INCLINATION,RA_OF_ASC_NODE,ARG_OF_PERICENTER,MEAN_ANOMALY,BSTAR,MEAN_MOTION_DOT,MEAN_MOTION_DDOT,TLE_LINE0,TLE_LINE1,TLE_LINE2,SEMIMAJOR_AXIS,PERIOD,APOGEE,PERIGEE,DECAYED
51994.0,STARLINK-3647,PAYLOAD,2022-05-28 14:00:01,15.55440294,0.0001083,53.2174,104.422,104.6209,253.3386,-0.011262,-0.00714904,0.0,0 STARLINK-3647,1 51994U 22025AQ  22148.58334491 -.00714904  00000-0 -11262-1 0  9993,2 51994  53.2174 104.4220 0001083 104.6209 253.3386 15.55440294  1302,6779.01,92.578,401.609,400.141,0.0
51994.0,STARLINK-3647,PAYLOAD,2022-05-28 22:00:00,15.54929198,0.0001077,53.2175,102.8147,93.88,331.3569,-0.011434,-0.00712429,0.0,0 STARLINK-3647,1 51994U 22025AQ  22148.91667824 -.00712429  00000-0 -11434-1 0  9990,2 51994  53.2175 102.8147 0001077  93.8800 331.3569 15.54929198 13927,6780.495,92.609,403.091,401.63,0.0
51994.0,STARLINK-3647,PAYLOAD,2022-05-29 14:00:01,15.53911474,0.0001250999999999,53.2174,99.6047,95.891,102.0605,-0.011939,-0.00716206,0.0,0 STARLINK-3647,1 51994U 22025AQ  22149.58334491 -.00716206  00000-0 -11939-1 0  9992,2 51994  53.2174  99.6047 0001251  95.8910 102.0605 15.53911474  1306,6783.456,92.669,406.169,404.472,0.0
51994.0,STARLINK-3647,PAYLOAD,2022-05-29 20:52:39,15.55034158,0.0002883,53.2108,98.2398,129.8294,230.2972,-0.0031986,-0.00213332,0.0,0 STARLINK-3647,1 51994U 22025AQ  22149.86989741 -.00213332  00000-0 -31986-2 0  9994,2 51994  53.2108  98.2398 0002883 129.8294 230.2972 15.55034158 12548,6780.19,92.602,404.01,400.101,0.0
51994.0,STARLINK-3647,PAYLOAD,2022-05-29 22:00:00,15.53399924,0.0001254,53.2174,98.0011,91.6797,171.71099999999996,-0.012102,-0.00712818,0.0,0 STARLINK-3647,1 51994U 22025AQ  22149.91667824 -.00712818  00000-0 -12102-1 0  9996,2 51994  53.2174  98.0011 0001254  91.6797 171.7110 15.53399924 14083,6784.945,92.7,407.661,405.959,0.0
51994.0,STARLINK-3647,PAYLOAD,2022-05-30 10:46:52,15.53955526,0.0001398,53.2124,95.4614,102.4209,257.6959,-0.0034342,-0.00219905,0.0,0 STARLINK-3647,1 51994U 22025AQ  22150.44921587 -.00219905  00000-0 -34342-2 0  9995,2 51994  53.2124  95.4614 0001398 102.4209 257.6959 15.53955526 14166,6783.3269999999975,92.667,406.141,404.244,0.0
51994.0,STARLINK-3647,PAYLOAD,2022-05-30 13:52:15,15.53777935,0.0001218,53.2124,94.8425,101.0829,259.032,-0.003454,-0.00219742,0.0,0 STARLINK-3647,1 51994U 22025AQ  22150.57795881 -.00219742  00000-0 -34540-2 0  9994,2 51994  53.2124  94.8425 0001218 101.0829 259.0320 15.53777935 12659,6783.844,92.677,406.536,404.883,0.0
51994.0,STARLINK-3647,PAYLOAD,2022-05-30 22:00:00,15.51869786,0.0001123,53.2176,93.1988,92.1774,3.8525,-0.012794,-0.0071279,0.0,0 STARLINK-3647,1 51994U 22025AQ  22150.91667824 -.00712790  00000-0 -12794-1 0  9994,2 51994  53.2176  93.1988 0001123  92.1774   3.8525 15.51869786 14238,6789.404,92.791,412.032,410.507,0.0
51994.0,STARLINK-3647,PAYLOAD,2022-05-31 06:00:02,15.51356433,0.0001230999999999,53.2175,91.602,92.0715,67.0108,-0.0129259999999999,-0.00707441,0.0,0 STARLINK-3647,1 51994U 22025AQ  22151.25002315 -.00707441  00000-0 -12926-1 0  9994,2 51994  53.2175  91.6020 0001231  92.0715  67.0108 15.51356433  1304,6790.901999999999,92.822,413.603,411.931,0.0
51994.0,STARLINK-3647,PAYLOAD,2022-05-31 13:03:35,15.52259912,6.35e-05,53.212,90.2119,126.6916,233.4154,-0.0037188,-0.00223771,0.0,0 STARLINK-3647,1 51994U 22025AQ  22151.54415781 -.00223771  00000-0 -37188-2 0  9998,2 51994  53.2120  90.2119 0000635 126.6916 233.4154 15.52259912 14334,6788.266,92.768,410.562,409.7,0.0
51994.0,STARLINK-3647,PAYLOAD,2022-05-31 22:00:00,15.50251316,0.0001289,53.2177,88.4079,91.8467,191.3235,-0.0089083,-0.00482346,0.0,0 STARLINK-3647,1 51994U 22025AQ  22151.91667824 -.00482346  00000-0 -89083-2 0  9992,2 51994  53.2177  88.4079 0001289  91.8467 191.3235 15.50251316 14396,6794.129,92.888,416.869,415.11800000000005,0.0
51994.0,STARLINK-3647,PAYLOAD,2022-06-01 06:00:00,15.4988399,0.0001186,53.2174,86.8156,94.052,250.2561,5.556e-05,2.703e-05,0.0,0 STARLINK-3647,1 51994U 22025AQ  22152.25001157  .00002703  00000-0  55560-4 0  9999,2 51994  53.2174  86.8156 0001186  94.0520 250.2561 15.49883990 14442,6795.2019999999975,92.91,417.87300000000016,416.261,0.0
51994.0,STARLINK-3647,PAYLOAD,2022-06-01 20:00:01,15.49921131,0.000119,53.2165,84.0257,98.6091,262.289,-0.014137,-0.00742238,0.0,0 STARLINK-3647,1 51994U 22025AQ  22152.83334491 -.00742238  00000-0 -14137-1 0  9991,2 51994  53.2165  84.0257 0001190  98.6091 262.2890 15.49921131 14530,6795.094,92.908,417.767,416.15,0.0
51994.0,STARLINK-3647,PAYLOAD,2022-06-02 19:13:34,15.49655914,0.0001245,53.2149,79.4174,165.6909,194.4136,-0.00234,-0.00130022,0.0,0 STARLINK-3647,1 51994U 22025AQ  22153.80109528 -.00130022  00000-0 -23400-2 0  9996,2 51994  53.2149  79.4174 0001245 165.6909 194.4136 15.49655914 14680,6795.869000000002,92.924,418.58,416.888,0.0
51994.0,STARLINK-3647,PAYLOAD,2022-06-03 01:25:46,15.48883562,0.000192,53.2149,78.1849,91.8655,268.2575,-0.0023133,-0.00125186,0.0,0 STARLINK-3647,1 51994U 22025AQ  22154.05957068 -.00125186  00000-0 -23133-2 0  9992,2 51994  53.2149  78.1849 0001920  91.8655 268.2575 15.48883562 14726,6798.128000000002,92.97,421.298,418.68800000000016,0.0
51994.0,STARLINK-3647,PAYLOAD,2022-06-03 06:06:51,15.47048108,0.0005327,53.2138,77.2704,125.0577,235.0932,-0.0070264,-0.00346242,0.0,0 STARLINK-3647,1 51994U 22025AQ  22154.25475870 -.00346242  00000-0 -70264-2 0  9995,2 51994  53.2138  77.2704 0005327 125.0577 235.0932 15.47048108 14752,6803.504,93.08,428.99300000000005,421.745,0.0
51994.0,STARLINK-3647,PAYLOAD,2022-06-04 03:45:58,15.48449786,0.0002126,53.2149,72.9534,329.0054,31.083,-0.0023345,-0.0012444,0.0,0 STARLINK-3647,1 51994U 22025AQ  22155.15692670 -.00124440  00000-0 -23345-2 0  9996,2 51994  53.2149  72.9534 0002126 329.0054  31.0830 15.48449786 14891,6799.397,92.996,422.708,419.817,0.0
51994.0,STARLINK-3647,PAYLOAD,2022-06-04 11:31:42,15.47857752,0.0002122,53.2156,71.4135,25.971,334.1405,-0.0029603,-0.0015388,0.0,0 STARLINK-3647,1 51994U 22025AQ  22155.48035321 -.00153880  00000-0 -29603-2 0  9999,2 51994  53.2156  71.4135 0002122  25.9710 334.1405 15.47857752 14943,6801.130999999999,93.032,424.439,421.55300000000005,0.0
51994.0,STARLINK-3647,PAYLOAD,2022-06-05 22:00:00,15.43658207,0.0001143,53.2175,64.5873,77.2741,354.088,-0.017037,-0.00721024,0.0,0 STARLINK-3647,1 51994U 22025AQ  22156.91667824 -.00721024  00000-0 -17037-1 0  9995,2 51994  53.2175  64.5873 0001143  77.2741 354.0880 15.43658207 15165,6813.4609999999975,93.285,436.104,434.547,0.0
51994.0,STARLINK-3647,PAYLOAD,2022-06-06 14:00:01,15.42636698,0.0001264,53.2171,61.4298,91.7526,85.2386,-0.017556,-0.0071796,0.0,0 STARLINK-3647,1 51994U 22025AQ  22157.58334491 -.00717960  00000-0 -17556-1 0  9990,2 51994  53.2171  61.4298 0001264  91.7526  85.2386 15.42636698  1308,6816.468000000003,93.347,439.195,437.471,0.0
51994.0,STARLINK-3647,PAYLOAD,2022-06-06 22:00:00,15.42125846,0.0001337,53.2173,59.8547,78.9217,149.9639,-0.017824,-0.00716589,0.0,0 STARLINK-3647,1 51994U 22025AQ  22157.91667824 -.00716589  00000-0 -17824-1 0  9990,2 51994  53.2173  59.8547 0001337  78.9217 149.9639 15.42125846  1300,6817.973000000001,93.378,440.75,438.927,0.0
51994.0,STARLINK-3647,PAYLOAD,2022-06-07 06:00:00,15.41618358,0.0001243,53.2171,58.2801,103.1635,177.0026,-0.018228,-0.00720139,0.0,0 STARLINK-3647,1 51994U 22025AQ  22158.25001157 -.00720139  00000-0 -18228-1 0  9994,2 51994  53.2171  58.2801 0001243 103.1635 177.0026 15.41618358 15373,6819.47,93.408,442.182,440.487,0.0
51994.0,STARLINK-3647,PAYLOAD,2022-06-07 14:00:01,15.41105102,0.0001134,53.2172,56.7045,99.0099,231.8279,-0.018407,-0.00715196,0.0,0 STARLINK-3647,1 51994U 22025AQ  22158.58334491 -.00715196  00000-0 -18407-1 0  9996,2 51994  53.2172  56.7045 0001134  99.0099 231.8279 15.41105102  1308,6820.984,93.439,443.622,442.075,0.0
51994.0,STARLINK-3647,PAYLOAD,2022-06-07 22:00:00,15.40598233,0.0001136,53.2174,55.1332,75.2139,305.6782,-0.018862,-0.0072018,0.0,0 STARLINK-3647,1 51994U 22025AQ  22158.91667824 -.00720180  00000-0 -18862-1 0  9996,2 51994  53.2174  55.1332 0001136  75.2139 305.6782 15.40598233  1304,6822.48,93.47,445.12,443.57,0.0
51994.0,STARLINK-3647,PAYLOAD,2022-06-08 06:00:02,15.40087236,0.0001088,53.2171,53.5621,95.4629,334.9369,-0.019115,-0.0071772999999999,0.0,0 STARLINK-3647,1 51994U 22025AQ  22159.25002315 -.00717730  00000-0 -19115-1 0  9991,2 51994  53.2171  53.5621 0001088  95.4629 334.9369 15.40087236 15529,6823.989000000001,93.501,446.596,445.111,0.0
51994.0,STARLINK-3647,PAYLOAD,2022-06-08 14:00:01,15.39577766,0.000118,53.2172,51.9901,84.2984,34.8692,-0.019501,-0.00719809,0.0,0 STARLINK-3647,1 51994U 22025AQ  22159.58334491 -.00719809  00000-0 -19501-1 0  9998,2 51994  53.2172  51.9901 0001180  84.2984  34.8692 15.39577766  1302,6825.494000000002,93.532,448.164,446.554,0.0
51994.0,STARLINK-3647,PAYLOAD,2022-06-08 22:00:01,15.39066118,0.0001372,53.2173,50.4224,71.3938,96.0559,-0.019747,-0.00716933,0.0,0 STARLINK-3647,1 51994U 22025AQ  22159.91668981 -.00716933  00000-0 -19747-1 0  9996,2 51994  53.2173  50.4224 0001372  71.3938  96.0559 15.39066118  1300,6827.007,93.563,449.8080000000001,447.935,0.0
51994.0,STARLINK-3647,PAYLOAD,2022-06-09 06:00:00,15.38558792,0.0001301,53.2171,48.8548,94.5646,120.425,-0.020204,-0.00721033,0.0,0 STARLINK-3647,1 51994U 22025AQ  22160.25001157 -.00721033  00000-0 -20204-1 0  9998,2 51994  53.2171  48.8548 0001301  94.5646 120.4250 15.38558792 15682,6828.507,93.594,451.261,449.484,0.0
51994.0,STARLINK-3647,PAYLOAD,2022-06-09 14:00:01,15.38046524,0.0001279,53.2173,47.2864,85.7737,176.2101,-0.020429,-0.00717216,0.0,0 STARLINK-3647,1 51994U 22025AQ  22160.58334491 -.00717216  00000-0 -20429-1 0  9991,2 51994  53.2173  47.2864 0001279  85.7737 176.2101 15.38046524  1308,6830.023,93.625,452.762,451.015,0.0
